NORAD_CAT_ID,OBJECT_NAME,OBJECT_TYPE,EPOCH,MEAN_MOTION,ECCENTRICITY,INCLINATION,RA_OF_ASC_NODE,ARG_OF_PERICENTER,MEAN_ANOMALY,BSTAR,MEAN_MOTION_DOT,MEAN_MOTION_DDOT,TLE_LINE0,TLE_LINE1,TLE_LINE2,SEMIMAJOR_AXIS,PERIOD,APOGEE,PERIGEE,DECAYED
55292.0,STARLINK-5325,PAYLOAD,2024-05-11 18:44:22,14.98311581,0.0002871,70.0001,265.9264,294.1221,65.9638,-0.00056553,-6.831e-05,0.0,0 STARLINK-5325,1 55292U 23010Z   24132.78082046 -.00006831  00000-0 -56553-3 0  9993,2 55292  70.0001 265.9264 0002871 294.1221  65.9638 14.98311581 73060,6950.25,96.108,574.11,570.119,0.0
55292.0,STARLINK-5325,PAYLOAD,2024-05-12 02:45:11,14.98206693,0.0002745,70.0003,265.086,268.7027,91.3817,-0.0011917,-0.00014238,0.0,0 STARLINK-5325,1 55292U 23010Z   24133.11471767 -.00014238  00000-0 -11917-2 0  9997,2 55292  70.0003 265.0860 0002745 268.7027  91.3817 14.98206693 73111,6950.574,96.115,574.347,570.531,0.0
55292.0,STARLINK-5325,PAYLOAD,2024-05-12 13:58:14,14.98165671,0.0002985,70.0002,263.9075,261.9947,98.0873,-0.0014875,-0.00017722,0.0,0 STARLINK-5325,1 55292U 23010Z   24133.58211046 -.00017722  00000-0 -14875-2 0  9997,2 55292  70.0002 263.9075 0002985 261.9947  98.0873 14.98165671 73180,6950.701,96.118,574.641,570.491,0.0
55292.0,STARLINK-5325,PAYLOAD,2024-05-12 18:46:40,14.98166515,0.0003272,69.9996,263.4024,262.9574,97.1213,-0.0014901,-0.00017753,0.0,0 STARLINK-5325,1 55292U 23010Z   24133.78240806 -.00017753  00000-0 -14901-2 0  9999,2 55292  69.9996 263.4024 0003272 262.9574  97.1213 14.98166515 73529,6950.699,96.117,574.838,570.289,0.0
55292.0,STARLINK-5325,PAYLOAD,2024-05-13 12:23:58,14.9835208,0.0002858,70.0015,261.5528,210.8968,149.2023,-4.1013e-05,-5.83e-06,0.0,0 STARLINK-5325,1 55292U 23010Z   24134.51665159 -.00000583  00000-0 -41013-4 0  9992,2 55292  70.0015 261.5528 0002858 210.8968 149.2023 14.98352080 73634,6950.125,96.106,573.976,570.003,0.0
55292.0,STARLINK-5325,PAYLOAD,2024-05-13 20:24:38,14.98362515,0.0002988,69.9994,260.7084,276.8018,83.2801,6.0695e-05,6.32e-06,0.0,0 STARLINK-5325,1 55292U 23010Z   24134.85044476  .00000632  00000-0  60695-4 0  9992,2 55292  69.9994 260.7084 0002988 276.8018  83.2801 14.98362515 73373,6950.092,96.105,574.034,569.881,0.0
55292.0,STARLINK-5325,PAYLOAD,2024-05-14 12:26:00,14.98284839,0.000296,69.9997,259.0256,269.8029,90.2791,0.0019515,0.00023242,0.0,0 STARLINK-5325,1 55292U 23010Z   24135.51806264  .00023242  00000-0  19515-2 0  9992,2 55292  69.9997 259.0256 0002960 269.8029  90.2791 14.98284839 73471,6950.333,96.11,574.255,570.14,0.0
55292.0,STARLINK-5325,PAYLOAD,2024-05-14 14:02:08,14.98292684,0.0002903,69.9997,258.8573,270.9962,89.0864,0.0019951,0.0002377,0.0,0 STARLINK-5325,1 55292U 23010Z   24135.58481880  .00023770  00000-0  19951-2 0  9992,2 55292  69.9997 258.8573 0002903 270.9962  89.0864 14.98292684 73795,6950.308,96.109,574.191,570.156,0.0
55292.0,STARLINK-5325,PAYLOAD,2024-05-15 01:15:03,14.98325273,0.0003096,69.9999,257.6783,269.8945,90.186,0.0019502,0.00023251,0.0,0 STARLINK-5325,1 55292U 23010Z   24136.05212509  .00023251  00000-0  19502-2 0  9991,2 55292  69.9999 257.6783 0003096 269.8945  90.1860 14.98325273 73553,6950.208,96.107,574.224,569.921,0.0
55292.0,STARLINK-5325,PAYLOAD,2024-05-15 12:27:55,14.9842999,0.0003145,69.9989,256.4987,282.7923,77.2884,0.00041578,4.884e-05,0.0,0 STARLINK-5325,1 55292U 23010Z   24136.51939789  .00004884  00000-0  41578-3 0  9998,2 55292  69.9989 256.4987 0003145 282.7923  77.2884 14.98429990 73621,6949.884,96.101,573.934,569.563,0.0
55292.0,STARLINK-5325,PAYLOAD,2024-05-15 14:04:03,14.98434756,0.0002824,69.9998,256.3319,281.0999,78.9843,0.00043141,5.072e-05,0.0,0 STARLINK-5325,1 55292U 23010Z   24136.58615038  .00005072  00000-0  43141-3 0  9991,2 55292  69.9998 256.3319 0002824 281.0999  78.9843 14.98434756 73941,6949.869,96.1,573.697,569.771,0.0
55292.0,STARLINK-5325,PAYLOAD,2024-05-15 18:52:25,14.98442939,0.0002416,70.0007,255.8276,268.1317,91.9566,0.00054092,6.386e-05,0.0,0 STARLINK-5325,1 55292U 23010Z   24136.78640680  .00006386  00000-0  54092-3 0  9990,2 55292  70.0007 255.8276 0002416 268.1317  91.9566 14.98442939 73666,6949.844,96.1,573.388,570.03,0.0
55292.0,STARLINK-5325,PAYLOAD,2024-05-16 01:17:00,14.98393712,0.0003524,70.0009,255.1537,274.5652,85.5104,-0.00018423,-2.294e-05,0.0,0 STARLINK-5325,1 55292U 23010Z   24137.05347725 -.00002294  00000-0 -18423-3 0  9999,2 55292  70.0009 255.1537 0003524 274.5652  85.5104 14.98393712 73701,6949.996,96.103,574.31,569.412,0.0
55292.0,STARLINK-5325,PAYLOAD,2024-05-16 10:53:48,14.98389435,0.0002698,70.0003,254.1442,261.4531,98.6322,-0.00039607,-4.823e-05,0.0,0 STARLINK-5325,1 55292U 23010Z   24137.45402905 -.00004823  00000-0 -39607-3 0  9992,2 55292  70.0003 254.1442 0002698 261.4531  98.6322 14.98389435 73761,6950.009,96.103,573.749,569.999,0.0
55292.0,STARLINK-5325,PAYLOAD,2024-05-16 14:06:03,14.98396552,0.0002704,69.9997,253.8063,269.9334,90.1515,-0.00028917,-3.547e-05,0.0,0 STARLINK-5325,1 55292U 23010Z   24137.58753491 -.00003547  00000-0 -28917-3 0  9999,2 55292  69.9997 253.8063 0002704 269.9334  90.1515 14.98396552 74093,6949.987,96.103,573.731,569.973,0.0
55292.0,STARLINK-5325,PAYLOAD,2024-05-16 17:18:18,14.98400509,0.0002902,69.9997,253.4699,271.6968,88.3858,-0.00025252,-3.11e-05,0.0,0 STARLINK-5325,1 55292U 23010Z   24137.72104511 -.00003110  00000-0 -25252-3 0  9993,2 55292  69.9997 253.4699 0002902 271.6968  88.3858 14.98400509 73802,6949.975,96.102,573.857,569.823,0.0
55292.0,STARLINK-5325,PAYLOAD,2024-05-17 01:18:59,14.98383387,0.0002479,69.9995,252.6278,285.9787,74.1099,-0.00054555,-6.605e-05,0.0,0 STARLINK-5325,1 55292U 23010Z   24138.05485131 -.00006605  00000-0 -54555-3 0  9990,2 55292  69.9995 252.6278 0002479 285.9787  74.1099 14.98383387 73859,6950.028,96.104,573.616,570.17,0.0
55292.0,STARLINK-5325,PAYLOAD,2024-05-17 10:55:48,14.98355849,0.0003134,70.0001,251.6191,279.7513,80.3292,-0.00089618,-0.00010777,0.0,0 STARLINK-5325,1 55292U 23010Z   24138.45542329 -.00010777  00000-0 -89618-3 0  9990,2 55292  70.0001 251.6191 0003134 279.7513  80.3292 14.98355849 73913,6950.113,96.105,574.156,569.8,0.0
55292.0,STARLINK-5325,PAYLOAD,2024-05-17 17:20:19,14.98360854,0.0002704,69.999,250.9426,270.9158,89.1691,-0.00083706,-0.00010074,0.0,0 STARLINK-5325,1 55292U 23010Z   24138.72245239 -.00010074  00000-0 -83706-3 0  9992,2 55292  69.9990 250.9426 0002704 270.9158  89.1691 14.98360854 73956,6950.097,96.105,573.842,570.083,0.0
55292.0,STARLINK-5325,PAYLOAD,2024-05-18 01:20:59,14.98365832,0.0003179,69.9997,250.1028,272.8064,87.2731,-0.00083841,-0.00010092,0.0,0 STARLINK-5325,1 55292U 23010Z   24139.05624132 -.00010092  00000-0 -83841-3 0  9992,2 55292  69.9997 250.1028 0003179 272.8064  87.2731 14.98365832 74009,6950.082,96.105,574.157,569.738,0.0
55292.0,STARLINK-5325,PAYLOAD,2024-05-18 14:10:02,14.9835288,0.000363,69.9976,248.7556,276.1826,83.8919,-5.3753e-05,-7.35e-06,0.0,0 STARLINK-5325,1 55292U 23010Z   24139.59030656 -.00000735  00000-0 -53753-4 0  9996,2 55292  69.9976 248.7556 0003630 276.1826  83.8919 14.98352880 74391,6950.122,96.106,574.51,569.464,0.0
55292.0,STARLINK-5325,PAYLOAD,2024-05-18 17:22:18,14.98358521,0.0003232,69.9998,248.4199,275.458,84.621,1.085e-05,3.6e-07,0.0,0 STARLINK-5325,1 55292U 23010Z   24139.72382039  .00000036  00000-0  10850-4 0  9999,2 55292  69.9998 248.4199 0003232 275.4580  84.6210 14.98358521 74102,6950.105,96.105,574.216,569.723,0.0
55292.0,STARLINK-5325,PAYLOAD,2024-05-19 14:12:06,14.98306753,0.0003415,69.9989,246.2324,278.2874,81.7898,-7.9096e-05,-1.036e-05,0.0,0 STARLINK-5325,1 55292U 23010Z   24140.59174300 -.00001036  00000-0 -79096-4 0  9996,2 55292  69.9989 246.2324 0003415 278.2874  81.7898 14.98306753 74546,6950.265,96.108,574.503,569.756,0.0
55292.0,STARLINK-5325,PAYLOAD,2024-05-19 17:24:22,14.98309968,0.0002575,69.9999,245.896,260.2355,99.8513,-1.9463e-05,-3.25e-06,0.0,0 STARLINK-5325,1 55292U 23010Z   24140.72526136 -.00000325  00000-0 -19463-4 0  9991,2 55292  69.9999 245.8960 0002575 260.2355  99.8513 14.98309968 74252,6950.255,96.108,573.91,570.33,0.0
55292.0,STARLINK-5325,PAYLOAD,2024-05-20 11:01:49,14.98336338,0.000327,69.9999,244.0438,276.5565,83.5221,9.5366e-05,1.045e-05,0.0,0 STARLINK-5325,1 55292U 23010Z   24141.45960549  .00001045  00000-0  95366-4 0  9996,2 55292  69.9999 244.0438 0003270 276.5565  83.5221 14.98336338 74368,6950.173,96.107,574.311,569.766,0.0
55292.0,STARLINK-5325,PAYLOAD,2024-05-20 14:14:05,14.98345008,0.0003352,69.9992,243.7073,279.8917,80.1864,0.00014083,1.588e-05,0.0,0 STARLINK-5325,1 55292U 23010Z   24141.59311850  .00001588  00000-0  14083-3 0  9994,2 55292  69.9992 243.7073 0003352 279.8917  80.1864 14.98345008 74696,6950.146,96.106,574.341,569.682,0.0
55292.0,STARLINK-5325,PAYLOAD,2024-05-20 17:26:21,14.98343188,0.0002768,70.0014,243.3724,272.3673,87.7169,0.00017144,1.954e-05,0.0,0 STARLINK-5325,1 55292U 23010Z   24141.72663873  .00001954  00000-0  17144-3 0  9992,2 55292  70.0014 243.3724 0002768 272.3673  87.7169 14.98343188 74407,6950.152,96.106,573.941,570.093,0.0
55292.0,STARLINK-5325,PAYLOAD,2024-05-21 12:39:59,14.98317242,0.0002624,70.0006,241.3519,251.8698,108.2176,0.00022815,2.629e-05,0.0,0 STARLINK-5325,1 55292U 23010Z   24142.52777373  .00002629  00000-0  22815-3 0  9993,2 55292  70.0006 241.3519 0002624 251.8698 108.2176 14.98317242 74520,6950.232,96.108,573.921,570.274,0.0
55292.0,STARLINK-5325,PAYLOAD,2024-05-21 14:16:07,14.98315866,0.0002694,70.0006,241.1836,258.261,101.8247,0.00018766,2.146e-05,0.0,0 STARLINK-5325,1 55292U 23010Z   24142.59453690  .00002146  00000-0  18766-3 0  9997,2 55292  70.0006 241.1836 0002694 258.2610 101.8247 14.98315866 74845,6950.237,96.108,573.974,570.229,0.0
55292.0,STARLINK-5325,PAYLOAD,2024-05-21 15:52:15,14.98318006,0.0003114,69.9997,241.0152,266.0189,94.0614,0.00024019,2.773e-05,0.0,0 STARLINK-5325,1 55292U 23010Z   24142.66129429  .00002773  00000-0  24019-3 0  9999,2 55292  69.9997 241.0152 0003114 266.0189  94.0614 14.98318006 74858,6950.23,96.108,574.259,569.931,0.0
